{
  "type": "FeatureCollection",
  "features": [
    {
      "type": "Feature",
      "properties": {
        "norad_id": 37846,
        "name": "GSAT0101 (GALILEO-PFM)",
        "group": "galileo",
        "lat": -18.24687043463613,
        "lon": 178.8880001935907,
        "alt_km": 23228.990218399787,
        "timestamp": "2025-12-22T14:45:57.665399+00:00",
        "meta_object_name": "GSAT0101 (GALILEO-PFM)",
        "meta_object_id": "2011-060A",
        "meta_epoch": "2025-12-21T02:42:49.222944",
        "meta_mean_motion": 1.70475776,
        "meta_eccentricity": 0.00032099,
        "meta_inclination": 57.0509,
        "meta_ra_of_asc_node": 346.5929,
        "meta_arg_of_pericenter": 319.8352,
        "meta_mean_anomaly": 40.1502,
        "meta_ephemeris_type": 0,
        "meta_classification_type": "U",
        "meta_norad_cat_id": 37846,
        "meta_element_set_no": 999,
        "meta_rev_at_epoch": 8808,
        "meta_bstar": 0,
        "meta_mean_motion_dot": -6.8e-07,
        "meta_mean_motion_ddot": 0,
        "tle_line1": "1 37846U 11060A   25355.11306971 -.00000068  00000+0  00000+0 0  9997",
        "tle_line2": "2 37846  57.0509 346.5929 0003209 319.8352  40.1502  1.70475776 88089"
      },
      "geometry": {
        "type": "Point",
        "coordinates": [
          178.8880001935907,
          -18.24687043463613
        ]
      }
    },
    {
      "type": "Feature",
      "properties": {
        "norad_id": 37847,
        "name": "GSAT0102 (GALILEO-FM2)",
        "group": "galileo",
        "lat": -50.74158653849726,
        "lon": -140.93716823790882,
        "alt_km": 23221.243683428293,
        "timestamp": "2025-12-22T14:45:57.665423+00:00",
        "meta_object_name": "GSAT0102 (GALILEO-FM2)",
        "meta_object_id": "2011-060B",
        "meta_epoch": "2025-12-21T21:59:38.834016",
        "meta_mean_motion": 1.70475998,
        "meta_eccentricity": 0.00051487,
        "meta_inclination": 57.0514,
        "meta_ra_of_asc_node": 346.5715,
        "meta_arg_of_pericenter": 312.846,
        "meta_mean_anomaly": 225.6479,
        "meta_ephemeris_type": 0,
        "meta_classification_type": "U",
        "meta_norad_cat_id": 37847,
        "meta_element_set_no": 999,
        "meta_rev_at_epoch": 8810,
        "meta_bstar": 0,
        "meta_mean_motion_dot": -6.6e-07,
        "meta_mean_motion_ddot": 0,
        "tle_line1": "1 37847U 11060B   25355.91642169 -.00000066  00000+0  00000+0 0  9996",
        "tle_line2": "2 37847  57.0514 346.5715 0005148 312.8460 225.6479  1.70475998 88108"
      },
      "geometry": {
        "type": "Point",
        "coordinates": [
          -140.93716823790882,
          -50.74158653849726
        ]
      }
    },
    {
      "type": "Feature",
      "properties": {
        "norad_id": 38857,
        "name": "GSAT0103 (GALILEO-FM3)",
        "group": "galileo",
        "lat": 2.2726586666455573,
        "lon": -75.15673533013862,
        "alt_km": 23222.50866288263,
        "timestamp": "2025-12-22T14:45:57.665438+00:00",
        "meta_object_name": "GSAT0103 (GALILEO-FM3)",
        "meta_object_id": "2012-055A",
        "meta_epoch": "2025-12-18T05:17:11.481792",
        "meta_mean_motion": 1.70473412,
        "meta_eccentricity": 0.00028558,
        "meta_inclination": 55.6954,
        "meta_ra_of_asc_node": 106.5161,
        "meta_arg_of_pericenter": 269.0808,
        "meta_mean_anomaly": 90.8455,
        "meta_ephemeris_type": 0,
        "meta_classification_type": "U",
        "meta_norad_cat_id": 38857,
        "meta_element_set_no": 999,
        "meta_rev_at_epoch": 8192,
        "meta_bstar": 0,
        "meta_mean_motion_dot": -7e-08,
        "meta_mean_motion_ddot": 0,
        "tle_line1": "1 38857U 12055A   25352.22027178 -.00000007  00000+0  00000+0 0  9996",
        "tle_line2": "2 38857  55.6954 106.5161 0002855 269.0808  90.8455  1.70473412 81920"
      },
      "geometry": {
        "type": "Point",
        "coordinates": [
          -75.15673533013862,
          2.2726586666455573
        ]
      }
    },
    {
      "type": "Feature",
      "properties": {
        "norad_id": 40128,
        "name": "GSAT0201 (GALILEO 5)",
        "group": "galileo",
        "lat": -5.245737032473782,
        "lon": -83.91021477216559,
        "alt_km": 26221.903813544643,
        "timestamp": "2025-12-22T14:45:57.665451+00:00",
        "meta_object_name": "GSAT0201 (GALILEO 5)",
        "meta_object_id": "2014-050A",
        "meta_epoch": "2025-12-22T02:10:25.077792",
        "meta_mean_motion": 1.85519674,
        "meta_eccentricity": 0.16488719,
        "meta_inclination": 49.0659,
        "meta_ra_of_asc_node": 280.6824,
        "meta_arg_of_pericenter": 172.6344,
        "meta_mean_anomaly": 190.1824,
        "meta_ephemeris_type": 0,
        "meta_classification_type": "U",
        "meta_norad_cat_id": 40128,
        "meta_element_set_no": 999,
        "meta_rev_at_epoch": 7503,
        "meta_bstar": 0,
        "meta_mean_motion_dot": -3.7e-07,
        "meta_mean_motion_ddot": 0,
        "tle_line1": "1 40128U 14050A   25356.09056803 -.00000037  00000+0  00000+0 0  9996",
        "tle_line2": "2 40128  49.0659 280.6824 1648871 172.6344 190.1824  1.85519674 75038"
      },
      "geometry": {
        "type": "Point",
        "coordinates": [
          -83.91021477216559,
          -5.245737032473782
        ]
      }
    },
    {
      "type": "Feature",
      "properties": {
        "norad_id": 40129,
        "name": "GSAT0202 (GALILEO 6)",
        "group": "galileo",
        "lat": -4.041158001919759,
        "lon": 103.24475451776917,
        "alt_km": 17048.03326746104,
        "timestamp": "2025-12-22T14:45:57.665463+00:00",
        "meta_object_name": "GSAT0202 (GALILEO 6)",
        "meta_object_id": "2014-050B",
        "meta_epoch": "2025-12-18T13:46:22.484640",
        "meta_mean_motion": 1.85520466,
        "meta_eccentricity": 0.16491259,
        "meta_inclination": 49.0858,
        "meta_ra_of_asc_node": 279.9095,
        "meta_arg_of_pericenter": 173.2442,
        "meta_mean_anomaly": 189.3393,
        "meta_ephemeris_type": 0,
        "meta_classification_type": "U",
        "meta_norad_cat_id": 40129,
        "meta_element_set_no": 999,
        "meta_rev_at_epoch": 7713,
        "meta_bstar": 0,
        "meta_mean_motion_dot": -5.9e-07,
        "meta_mean_motion_ddot": 0,
        "tle_line1": "1 40129U 14050B   25352.57387135 -.00000059  00000+0  00000+0 0  9995",
        "tle_line2": "2 40129  49.0858 279.9095 1649125 173.2442 189.3393  1.85520466 77135"
      },
      "geometry": {
        "type": "Point",
        "coordinates": [
          103.24475451776917,
          -4.041158001919759
        ]
      }
    },
    {
      "type": "Feature",
      "properties": {
        "norad_id": 40544,
        "name": "GSAT0203 (GALILEO 7)",
        "group": "galileo",
        "lat": -18.17908458183182,
        "lon": -25.99691986917402,
        "alt_km": 23216.066537380222,
        "timestamp": "2025-12-22T14:45:57.665475+00:00",
        "meta_object_name": "GSAT0203 (GALILEO 7)",
        "meta_object_id": "2015-017A",
        "meta_epoch": "2025-12-20T07:18:34.773696",
        "meta_mean_motion": 1.70475998,
        "meta_eccentricity": 0.00064692,
        "meta_inclination": 56.8445,
        "meta_ra_of_asc_node": 346.4738,
        "meta_arg_of_pericenter": 274.1452,
        "meta_mean_anomaly": 85.7909,
        "meta_ephemeris_type": 0,
        "meta_classification_type": "U",
        "meta_norad_cat_id": 40544,
        "meta_element_set_no": 999,
        "meta_rev_at_epoch": 6615,
        "meta_bstar": 0,
        "meta_mean_motion_dot": -7.1e-07,
        "meta_mean_motion_ddot": 0,
        "tle_line1": "1 40544U 15017A   25354.30456914 -.00000071  00000+0  00000+0 0  9999",
        "tle_line2": "2 40544  56.8445 346.4738 0006469 274.1452  85.7909  1.70475998 66152"
      },
      "geometry": {
        "type": "Point",
        "coordinates": [
          -25.99691986917402,
          -18.17908458183182
        ]
      }
    },
    {
      "type": "Feature",
      "properties": {
        "norad_id": 40545,
        "name": "GSAT0204 (GALILEO 8)",
        "group": "galileo",
        "lat": -1.028194081841749,
        "lon": 167.08924072258844,
        "alt_km": 23220.972855474003,
        "timestamp": "2025-12-22T14:45:57.665486+00:00",
        "meta_object_name": "GSAT0204 (GALILEO 8)",
        "meta_object_id": "2015-017B",
        "meta_epoch": "2025-12-20T13:26:28.826304",
        "meta_mean_motion": 1.70475697,
        "meta_eccentricity": 0.0006133,
        "meta_inclination": 56.8522,
        "meta_ra_of_asc_node": 346.4847,
        "meta_arg_of_pericenter": 266.5447,
        "meta_mean_anomaly": 93.3948,
        "meta_ephemeris_type": 0,
        "meta_classification_type": "U",
        "meta_norad_cat_id": 40545,
        "meta_element_set_no": 999,
        "meta_rev_at_epoch": 2920,
        "meta_bstar": 0,
        "meta_mean_motion_dot": -7e-07,
        "meta_mean_motion_ddot": 0,
        "tle_line1": "1 40545U 15017B   25354.56005586 -.00000070  00000+0  00000+0 0  9992",
        "tle_line2": "2 40545  56.8522 346.4847 0006133 266.5447  93.3948  1.70475697 29206"
      },
      "geometry": {
        "type": "Point",
        "coordinates": [
          167.08924072258844,
          -1.028194081841749
        ]
      }
    }
  ]
}